[{"OBJECT_NAME":"MOHAMMED VI-A","OBJECT_ID":"2017-070A","EPOCH":"2026-03-09T23:14:54.770208","MEAN_MOTION":14.771271,"ECCENTRICITY":0.00014633,"INCLINATION":97.9427,"RA_OF_ASC_NODE":142.7067,"ARG_OF_PERICENTER":97.7701,"MEAN_ANOMALY":262.3676,"EPHEMERIS_TYPE":0,"CLASSIFICATION_TYPE":"U","NORAD_CAT_ID":43005,"ELEMENT_SET_NO":999,"REV_AT_EPOCH":44933,"BSTAR":0.00019951362,"MEAN_MOTION_DOT":1.36e-5,"MEAN_MOTION_DDOT":0},{"OBJECT_NAME":"SL-8 DEB","OBJECT_ID":"1988-029C","EPOCH":"2026-03-09T23:59:50.703360","MEAN_MOTION":14.75609451,"ECCENTRICITY":0.00084558,"INCLINATION":74.0163,"RA_OF_ASC_NODE":271.2141,"ARG_OF_PERICENTER":343.8578,"MEAN_ANOMALY":168.352,"EPHEMERIS_TYPE":0,"CLASSIFICATION_TYPE":"U","NORAD_CAT_ID":19048,"ELEMENT_SET_NO":999,"REV_AT_EPOCH":897,"BSTAR":0.00059777519,"MEAN_MOTION_DOT":4.05e-5,"MEAN_MOTION_DDOT":0}]
